[{"OBJECT_NAME":"STARLINK-2748","OBJECT_ID":"2021-044BJ","EPOCH":"2026-03-09T09:53:34.130976","MEAN_MOTION":15.30187135,"ECCENTRICITY":0.00014772,"INCLINATION":53.1612,"RA_OF_ASC_NODE":79.7966,"ARG_OF_PERICENTER":95.3252,"MEAN_ANOMALY":264.7917,"EPHEMERIS_TYPE":0,"CLASSIFICATION_TYPE":"U","NORAD_CAT_ID":48694,"ELEMENT_SET_NO":999,"REV_AT_EPOCH":26427,"BSTAR":-1.3545385e-5,"MEAN_MOTION_DOT":-7.6e-6,"MEAN_MOTION_DDOT":0},{"OBJECT_NAME":"OBJECT Y","OBJECT_ID":"2023-085Y","EPOCH":"2026-03-09T22:38:54.992256","MEAN_MOTION":15.32500153,"ECCENTRICITY":0.00063298,"INCLINATION":97.4849,"RA_OF_ASC_NODE":180.8653,"ARG_OF_PERICENTER":67.4431,"MEAN_ANOMALY":292.748,"EPHEMERIS_TYPE":0,"CLASSIFICATION_TYPE":"U","NORAD_CAT_ID":57026,"ELEMENT_SET_NO":999,"REV_AT_EPOCH":15160,"BSTAR":0.00065512761,"MEAN_MOTION_DOT":0.00020524,"MEAN_MOTION_DDOT":0}]
